{
    "links": {
        "self": "http://www.neowsapp.com/rest/v1/neo/54016729?api_key=iIulBulltgU6a56xZRHN4H3l9WmuAYTsLGpBGhQ2"
    },
    "id": "54016729",
    "neo_reference_id": "54016729",
    "name": "(2020 HJ5)",
    "designation": "2020 HJ5",
    "nasa_jpl_url": "http://ssd.jpl.nasa.gov/sbdb.cgi?sstr=54016729",
    "absolute_magnitude_h": 23.827,
    "estimated_diameter": {
        "kilometers": {
            "estimated_diameter_min": 0.045619968,
            "estimated_diameter_max": 0.1020093496
        },
        "meters": {
            "estimated_diameter_min": 45.6199680316,
            "estimated_diameter_max": 102.00934965
        },
        "miles": {
            "estimated_diameter_min": 0.0283469252,
            "estimated_diameter_max": 0.0633856516
        },
        "feet": {
            "estimated_diameter_min": 149.6718159167,
            "estimated_diameter_max": 334.6763547056
        }
    },
    "is_potentially_hazardous_asteroid": false,
    "close_approach_data": [
        {
            "close_approach_date": "2020-01-19",
            "close_approach_date_full": "2020-Jan-19 00:45",
            "epoch_date_close_approach": 1579394700000,
            "relative_velocity": {
                "kilometers_per_second": "23.3857087987",
                "kilometers_per_hour": "84188.5516751479",
                "miles_per_hour": "52311.4920117051"
            },
            "miss_distance": {
                "astronomical": "0.1222970419",
                "lunar": "47.5735492991",
                "kilometers": "18295376.975540753",
                "miles": "11368220.1012302714"
            },
            "orbiting_body": "Venus"
        },
        {
            "close_approach_date": "2020-04-01",
            "close_approach_date_full": "2020-Apr-01 22:19",
            "epoch_date_close_approach": 1585779540000,
            "relative_velocity": {
                "kilometers_per_second": "18.2665606838",
                "kilometers_per_hour": "65759.618461846",
                "miles_per_hour": "40860.4695936953"
            },
            "miss_distance": {
                "astronomical": "0.0553084225",
                "lunar": "21.5149763525",
                "kilometers": "8274022.199060075",
                "miles": "5141238.992076035"
            },
            "orbiting_body": "Earth"
        }
    ],
    "orbital_data": {
        "orbit_id": "1",
        "orbit_determination_date": "2020-04-24 09:12:06",
        "first_observation_date": "2020-04-20",
        "last_observation_date": "2020-04-24",
        "data_arc_in_days": 4,
        "observations_used": 15,
        "orbit_uncertainty": "9",
        "minimum_orbit_intersection": ".0102521",
        "jupiter_tisserand_invariant": "3.812",
        "epoch_osculation": "2458960.5",
        "eccentricity": ".670344309608943",
        "semi_major_axis": "1.764193209304824",
        "inclination": "3.561273990207119",
        "ascending_node_longitude": "1.104878270291419",
        "orbital_period": "855.8893964572742",
        "perihelion_distance": ".5815763303965963",
        "perihelion_argument": "102.1080901823528",
        "aphelion_distance": "2.946810088213051",
        "perihelion_time": "2458893.064986091412",
        "mean_anomaly": "28.36418479721587",
        "mean_motion": ".4206150952332439",
        "equinox": "J2000",
        "orbit_class": {
            "orbit_class_type": "APO",
            "orbit_class_description": "Near-Earth asteroid orbits which cross the Earth’s orbit similar to that of 1862 Apollo",
            "orbit_class_range": "a (semi-major axis) > 1.0 AU; q (perihelion) < 1.017 AU"
        }
    },
    "is_sentry_object": false
}